KUIPER-00008            
1 63724U 25088A   25299.13358022  .00006596  00000+0  55052-3 0  9991
2 63724  51.8915 340.4651 0011308  12.1458 347.9784 14.99594669 27878
KUIPER-00009            
1 63725U 25088B   25298.85685190  .00002560  00000+0  36309-3 0  9990
2 63725  51.9023 342.8253 0012892  15.2504 344.8845 14.80124574 27811
KUIPER-00010            
1 63726U 25088C   25299.16668980 -.00026807  00000+0 -33929-2 0  9990
2 63726  51.8997 317.9418 0011941  58.9500 181.6260 14.81186845  4410
KUIPER-00011            
1 63727U 25088D   25299.07881801  .00001682  00000+0  24955-3 0  9992
2 63727  51.9023 325.9106 0013862  32.6686 327.5131 14.79948349 27823
KUIPER-00012            
1 63728U 25088E   25299.16668980 -.00014286  00000+0 -64186-3 0  9990
2 63728  51.8689 313.7442 0011869  26.1735 338.5747 15.19871701  1961
KUIPER-00013            
1 63729U 25088F   25299.19493766  .00002112  00000+0  30594-3 0  9991
2 63729  51.9020 342.8141 0007516 308.7000  51.3290 14.79949139 27652
KUIPER-00014            
1 63730U 25088G   25298.85554576 -.00013026  00000+0 -16826-2 0  9991
2 63730  51.9025 345.2783 0008501  11.2775 348.8377 14.79905226 27400
KUIPER-00015            
1 63731U 25088H   25299.15640164  .00003063  00000+0  41517-3 0  9999
2 63731  51.9000 355.5522 0010040 355.2909   4.7958 14.81495821 27748
